#aV2008  6 25  0  0   .00000000      96 DD+AD WGS84 FIT  NGA
## 1485 259200.00000000   900.00000000 54642  .0000000000000
+   31     2  3  4  5  6  7  8  9 10 11 12 13 14 15 16 17 18
+         19 20 21 22 23 24 25 26 27 28 29 30 31 32  0  0  0
+          0  0  0  0  0  0  0  0  0  0  0  0  0  0  0  0  0
+          0  0  0  0  0  0  0  0  0  0  0  0  0  0  0  0  0
+          0  0  0  0  0  0  0  0  0  0  0  0  0  0  0  0  0
++         0  0  0  0  0  0  0  0  0  0  0  0  0  0  0  0  0
++         0  0  0  0  0  0  0  0  0  0  0  0  0  0  0  0  0
++         0  0  0  0  0  0  0  0  0  0  0  0  0  0  0  0  0
++         0  0  0  0  0  0  0  0  0  0  0  0  0  0  0  0  0
++         0  0  0  0  0  0  0  0  0  0  0  0  0  0  0  0  0
%c cc cc ccc ccc cccc cccc cccc cccc ccccc ccccc ccccc ccccc
%c cc cc ccc ccc cccc cccc cccc cccc ccccc ccccc ccccc ccccc
%f  0.0000000  0.000000000  0.00000000000  0.000000000000000
%f  0.0000000  0.000000000  0.00000000000  0.000000000000000
%i    0    0    0    0      0      0      0      0         0
%i    0    0    0    0      0      0      0      0         0
/*      NGA, ST. LOUIS,MO.                                  
/*   EPHEMERIS COMPUTED FROM  3 DAYS OF DATA                
/* CCCCCCCCCCCCCCCCCCCCCCCCCCCCCCCCCCCCCCCCCCCCCCCCCCCCCCCCC
/* CCCCCCCCCCCCCCCCCCCCCCCCCCCCCCCCCCCCCCCCCCCCCCCCCCCCCCCCC
*  2008  6 25 21 45   .00000000                                                 
P  2 -18009.018323  13079.693773  14068.288078    205.216554                    
V  2 -18525.981877    -32.682589 -23791.659468      -.013587                    
P  3  10713.135808 -23461.016890   5247.380460    247.050801                    
V  3   2065.365270   7948.914313  30203.539998       .051691                    
P  4 -25360.297683   6945.234384   4846.699929    -99.845212                    
V  4  -6573.861640  -2165.591514 -30312.085299      -.094016                    
P  5  14562.826659  21586.919419  -5875.536482   -380.814219                    
V  5  -7128.315105  -3031.771763 -30084.679779       .122646                    
P  6  14633.738165 -20089.625541   9594.000996    153.337581                    
V  6   -927.940396  12346.464685  27813.087086       .053440                    
P  7 -19329.728172  -8552.742761  16100.578652    -14.378922                    
V  7  19999.666233  -4700.497319  21398.782104       .065968                    
P  8 -26194.256864  -1335.006117   5491.413921   -159.091412                    
V  8   6800.675487  -2249.061809  30951.630624      -.017238                    
P  9   3774.935467  14825.343128 -22355.222548      2.428337                    
V  9 -26391.182838   4778.704663  -1176.753198       .016872                    
P 10  -6210.213405  15461.076610  20470.227815     -2.472525                    
V 10 -16647.661861 -20490.952112  10674.672332      -.002580                    
P 11  -7783.844449 -14988.946332 -20672.671108     24.215265                    
V 11  24666.906304  -8882.311189  -2533.203065      -.004314                    
P 12  10043.753765  22920.239130  -8957.236919   -358.061347                    
V 12  -8965.491025  -7540.933283 -28968.451732       .005136                    
P 13  -9917.967226 -11838.062759  21489.871009    261.305875                    
V 13  11824.496926 -24809.654643  -8148.756143       .015253                    
P 14  16744.611407  -6344.168546 -19481.376531   -251.317587                    
V 14  -9054.722239  23231.902652 -15370.669740       .043390                    
P 15  -6183.589546  25368.956432  -4814.079325   -132.559998                    
V 15  -4891.682056   4693.701661  30896.913285      -.061862                    
P 16  10560.368621 -11011.475103  21796.748834    119.705153                    
V 16  16858.828526  21742.092955   3026.054094      -.016239                    
P 17 -17198.112467   6651.596655 -19014.119623     38.598035                    
V 17   7947.121694 -23005.169186 -15360.185199      -.001058                    
P 18  19283.516048  16606.893672  -8048.337235   -163.429100                    
V 18   3904.841929  10010.053212  28971.111974       .041893                    
P 19   7303.060931 -24707.019318  -5939.711353     32.601408                    
V 19   6055.899098  -5621.740313  30577.316582       .006059                    
P 20 -11383.570373 -22774.147420  -7744.466532    111.318599                    
V 20   8436.393939   5621.496858 -29334.050962      -.008769                    
P 21  23462.649971   5973.541269  11795.056612     60.083162                    
V 21 -14116.107570   4188.930939  25779.891580      -.012451                    
P 22  18953.614039   4027.062142 -18035.878166    211.512400                    
V 22  12120.185372  19915.022463  16978.637427      -.000950                    
P 23  -2517.143077 -21467.448201  15194.679486    361.238579                    
V 23   9145.498075 -17331.117150 -23112.942454       .019368                    
P 24  10693.100157  13517.767007  20302.742148    104.699361                    
V 24 -25297.405398   3516.389727  11344.603449       .029050                    
P 25 -12835.300369 -11508.481127  20515.118406   -176.911854                    
V 25  24345.331517  -6913.872681  11732.160074      -.053866                    
P 26  -9670.548658  24367.871707  -1990.567778    280.926827                    
V 26  -2822.780198    862.361190  32696.711233       .071415                    
P 27 -21153.693619  -6482.539454  15467.240311    198.251888                    
V 27  17691.118992  -5200.528238  22900.455551       .027753                    
P 28 -19278.633359  -6206.529221 -16969.986691    -20.446060                    
V 28 -11928.127519 -18747.658665  19629.957871      -.004135                    
P 29   8812.160800  15200.477783  20046.898264    -42.317396                    
V 29 -10853.331644  22755.546024 -12528.502690       .004760                    
P 30  18332.977410  19133.699986   2139.004398     82.914527                    
V 30   -338.967341   4395.740581 -31276.757003       .018286                    
P 31  24447.279872  -8267.464471   6726.552163    -24.652097                    
V 31   8495.074465   1111.173674 -30314.531086      -.013160                    
P 32  -2679.694703 -22008.314493 -14348.730099    301.461463                    
V 32  11970.274540  14697.348685 -23896.692438       .037166                    
EOF
